NOAA 20 (JPSS-1)        
1 43013U 17073A   25267.20073990  .00000180  00000+0  10619-3 0  9999
2 43013  98.7459 204.4206 0001194  35.9703 324.1554 14.19563063406737
GOES 17                 
1 43226U 18022A   25266.40530870 -.00000185  00000+0  00000+0 0  9991
2 43226   0.2470  92.0607 0002597 152.3625 174.4849  1.00271082 27741
FENGYUN 2H              
1 43491U 18050A   25267.09303391 -.00000127  00000+0  00000+0 0  9994
2 43491   2.3409  82.2261 0002754 133.3123 260.2823  1.00269254 26770
METOP-C                 
1 43689U 18087A   25267.28302562  .00000250  00000+0  13413-3 0  9995
2 43689  98.7049 326.2204 0001138 157.1108 203.0120 14.21495301357052
GEO-KOMPSAT-2A          
1 43823U 18100A   25266.46823532 -.00000347  00000+0  00000+0 0  9997
2 43823   0.0420  37.1832 0001569  95.5029 166.7104  1.00271173 24950
METEOR-M2 2             
1 44387U 19038A   25267.28281512  .00000263  00000+0  13371-3 0  9996
2 44387  98.8868 246.0735 0002315  74.1522 285.9911 14.24239635323444
ARKTIKA-M 1             
1 47719U 21016A   25266.32659031 -.00000078  00000+0  00000+0 0  9992
2 47719  63.1696  94.8597 7159970 268.8502  16.1065  2.00628734 33436
FENGYUN 3E              
1 49008U 21062A   25267.25628481  .00000061  00000+0  49632-4 0  9994
2 49008  98.7477 268.7110 0002524 115.4340 244.7097 14.19863317218840
GOES 18                 
1 51850U 22021A   25266.69332425  .00000094  00000+0  00000+0 0  9992
2 51850   0.0453  30.4534 0000453 223.8234 221.1056  1.00272340  3928
NOAA 21 (JPSS-2)        
1 54234U 22150A   25267.30727756  .00000191  00000+0  11131-3 0  9997
2 54234  98.7323 204.6570 0000962 184.5266 175.5902 14.19561895148826
METEOSAT-12 (MTG-I1)    
1 54743U 22170C   25267.21998899 -.00000008  00000+0  00000+0 0  9999
2 54743   0.6667  26.1599 0001813 121.6458 294.3216  1.00270033 10310
TIANMU-1 03             
1 55973U 23039A   25267.25372838  .00021619  00000+0  58614-3 0  9991
2 55973  97.5104  67.8913 0003232 353.9684   6.1521 15.37651560139837
TIANMU-1 04             
1 55974U 23039B   25267.18382270  .00022724  00000+0  61051-3 0  9992
2 55974  97.5034  67.0479 0003899 346.3324  13.7814 15.37922388139822
TIANMU-1 05             
1 55975U 23039C   25267.35558028  .00021639  00000+0  58716-3 0  9996
2 55975  97.5081  67.7079 0003438  17.6471 342.4892 15.37625679139830
TIANMU-1 06             
1 55976U 23039D   25267.25419193  .00022004  00000+0  58986-3 0  9991
2 55976  97.5093  68.0068 0003688  10.4024 349.7296 15.37997181139836
METEOR-M2 3             
1 57166U 23091A   25267.29362538  .00000049  00000+0  40365-4 0  9994
2 57166  98.6502 322.1683 0003347 208.5460 151.5536 14.24011375116679
TIANMU-1 07             
1 57399U 23101A   25267.25099800  .00011305  00000+0  43694-3 0  9993
2 57399  97.2998 318.8906 0004237  24.5445 335.5994 15.26389785121022
TIANMU-1 08             
1 57400U 23101B   25267.21730554  .00011923  00000+0  46060-3 0  9996
2 57400  97.2988 318.6693 0006214  20.5344 339.6144 15.26384769121014
TIANMU-1 09             
1 57401U 23101C   25267.20420331  .00011792  00000+0  45597-3 0  9993
2 57401  97.2946 318.2151 0005481  22.8362 337.3120 15.26359708121018
TIANMU-1 10             
1 57402U 23101D   25267.17231700  .00013066  00000+0  50491-3 0  9995
2 57402  97.3024 318.9501 0007225  17.9372 342.2120 15.26345824121005
FENGYUN 3F              
1 57490U 23111A   25267.31412832  .00000174  00000+0  10253-3 0  9994
2 57490  98.7181 336.8527 0001444 105.7736 254.3600 14.19861910111134
ARKTIKA-M 2             
1 58584U 23198A   25245.63669142  .00000141  00000+0  00000+0 0  9992
2 58584  63.2042 185.8992 6865009 268.5190  18.6674  2.00594607 12554
TIANMU-1 11             
1 58645U 23205A   25267.29500750  .00010071  00000+0  42819-3 0  9995
2 58645  97.3686 288.3513 0008552 212.2679 147.8036 15.23191687 96993
TIANMU-1 12             
1 58646U 23205B   25267.31642108  .00009972  00000+0  42577-3 0  9992
2 58646  97.3674 288.2039 0007290 191.7651 168.3417 15.23062537 96983
TIANMU-1 13             
1 58647U 23205C   25267.28464488  .00010586  00000+0  45169-3 0  9995
2 58647  97.3701 288.3430 0008248 173.3842 186.7505 15.23061238 96971
TIANMU-1 14             
1 58648U 23205D   25267.33307325  .00010632  00000+0  45361-3 0  9994
2 58648  97.3632 287.8130 0008918 178.4072 181.7195 15.23055627 96987
TIANMU-1 19             
1 58660U 23208A   25267.31216363  .00015412  00000+0  60667-3 0  9997
2 58660  97.4353  18.6576 0006014 165.7925 194.3483 15.25701901 96702
TIANMU-1 20             
1 58661U 23208B   25267.29533106  .00015103  00000+0  57334-3 0  9996
2 58661  97.4290  19.0108 0008114 178.9850 181.1406 15.26900995 96765
TIANMU-1 21             
1 58662U 23208C   25267.28496122  .00016955  00000+0  60233-3 0  9990
2 58662  97.4337  20.5755 0007721 175.3975 184.7338 15.29063214 96844
TIANMU-1 22             
1 58663U 23208D   25267.30263247  .00013915  00000+0  55005-3 0  9998
2 58663  97.4349  18.7358 0004100 183.9962 176.1244 15.25592535 96711
